SL-3 R/B                
1 13403U 82079B   26071.94797752  .00007490  00000+0  29777-3 0  9997
2 13403  81.1477 189.2302 0025193 153.7775 206.4740 15.24852448378195
SL-14 R/B               
1 13553U 82092B   26071.68307044  .00000548  00000+0  58829-4 0  9998
2 13553  82.5690 138.6001 0018872 292.9050 185.7518 14.86669734329374
SL-3 R/B                
1 13819U 83010B   26071.73746105  .00017725  00000+0  35449-3 0  9992
2 13819  81.1062 358.5108 0017733  41.1623 319.0955 15.46474228358416
SL-3 R/B                
1 14208U 83075B   26072.00424938  .00012234  00000+0  32189-3 0  9992
2 14208  97.6145  76.7071 0020446 213.2813 146.7148 15.38504931330661
COSMOS 1536             
1 14699U 84013A   26071.54353188  .00006544  00000+0  26945-3 0  9995
2 14699  82.5430 105.0133 0012526 272.1389  87.8414 15.23867314273053
SL-14 R/B               
1 14820U 84027B   26071.52131228  .00000645  00000+0  70929-4 0  9991
2 14820  82.5390 242.3562 0017146 328.1982  31.8197 14.85980010248054
SL-8 R/B                
1 15483U 85006B   26072.00889546  .00000400  00000+0  14113-3 0  9993
2 15483  74.0433 255.0401 0018321 172.0514 306.5614 14.37785819154509
SL-12 R/B(2)            
1 15772U 85042D   26071.45534860  .00000161  00000+0  93673-4 0  9991
2 15772  71.1063  81.8850 0033115 123.5864  28.0577 14.21983223114789
SL-14 R/B               
1 15945U 85069B   26071.84182155  .00000658  00000+0  71593-4 0  9999
2 15945  82.5290  21.9693 0018759 177.1716 182.9610 14.86437421173303
SL-16 R/B               
1 16182U 85097B   26071.61899201 -.00000120  00000+0 -36132-4 0  9992
2 16182  71.0022 134.3878 0009838 256.2098 265.4106 14.16598266 87643
SL-14 R/B               
1 16496U 86006B   26071.61616992  .00000847  00000+0  87591-4 0  9994
2 16496  82.5236 256.9821 0075060 262.8934  96.3743 14.86819773149649
COSMOS 1743             
1 16719U 86034A   26071.98042694  .00039456  00000+0  50906-3 0  9992
2 16719  82.5291  70.3764 0001511 259.9622 100.1464 15.58811671180764
